{"type": "FeatureCollection", "features": [ {"type": "Feature", "properties": {"norad_id": 30386, "name": "FENGYUN 1C DEB", "group": "fengyun-1c-debris", "lat": 75.44467790282941, "lon": 110.43306878957394, "alt_km": 828.4721804691981, "timestamp": "2025-12-26T16:33:55.847665+00:00", "meta": {"OBJECT_NAME": "FENGYUN 1C DEB", "OBJECT_ID": "1999-025ACZ", "EPOCH": "2025-12-24T16:24:06.770016", "MEAN_MOTION": 13.55610958, "ECCENTRICITY": 0.03043556, "INCLINATION": 98.6909, "RA_OF_ASC_NODE": 252.5703, "ARG_OF_PERICENTER": 124.6608, "MEAN_ANOMALY": 269.5784, "EPHEMERIS_TYPE": 0, "CLASSIFICATION_TYPE": "U", "NORAD_CAT_ID": 30386, "ELEMENT_SET_NO": 999, "REV_AT_EPOCH": 92991, "BSTAR": 0.0019056002, "MEAN_MOTION_DOT": 1.75e-05, "MEAN_MOTION_DDOT": 0}, "tle": {"line1": "1 30386U 99025ACZ 25358.68341169  .00001750  00000+0  19056-2 0  9991", "line2": "2 30386  98.6909 252.5703 0304355 124.6608 269.5784 13.55610958929918"}}, "geometry": {"type": "Point", "coordinates": [110.43306878957394, 75.44467790282941]}}, {"type": "Feature", "properties": {"norad_id": 30387, "name": "FENGYUN 1C DEB", "group": "fengyun-1c-debris", "lat": -53.269156343360564, "lon": 27.12288053412991, "alt_km": 849.6887283666774, "timestamp": "2025-12-26T16:33:55.847674+00:00", "meta": {"OBJECT_NAME": "FENGYUN 1C DEB", "OBJECT_ID": "1999-025ADA", "EPOCH": "2025-12-25T12:41:17.863008", "MEAN_MOTION": 14.15065168, "ECCENTRICITY": 0.0001151, "INCLINATION": 98.656, "RA_OF_ASC_NODE": 14.2169, "ARG_OF_PERICENTER": 90.6992, "MEAN_ANOMALY": 61.3287, "EPHEMERIS_TYPE": 0, "CLASSIFICATION_TYPE": "U", "NORAD_CAT_ID": 30387, "ELEMENT_SET_NO": 999, "REV_AT_EPOCH": 97505, "BSTAR": 0.00024648, "MEAN_MOTION_DOT": 4.35e-06, "MEAN_MOTION_DDOT": 0}, "tle": {"line1": "1 30387U 99025ADA 25359.52867897  .00000435  00000+0  24648-3 0  9990", "line2": "2 30387  98.6560  14.2169 0001151  90.6992  61.3287 14.15065168975053"}}, "geometry": {"type": "Point", "coordinates": [27.12288053412991, -53.269156343360564]}}, {"type": "Feature", "properties": {"norad_id": 30388, "name": "FENGYUN 1C DEB", "group": "fengyun-1c-debris", "lat": 77.32016200529513, "lon": -116.77197953713701, "alt_km": 778.8664939468063, "timestamp": "2025-12-26T16:33:55.847683+00:00", "meta": {"OBJECT_NAME": "FENGYUN 1C DEB", "OBJECT_ID": "1999-025ADB", "EPOCH": "2025-12-26T07:45:30.959136", "MEAN_MOTION": 14.19802038, "ECCENTRICITY": 0.02215154, "INCLINATION": 98.5984, "RA_OF_ASC_NODE": 20.6117, "ARG_OF_PERICENTER": 23.6242, "MEAN_ANOMALY": 358.6962, "EPHEMERIS_TYPE": 0, "CLASSIFICATION_TYPE": "U", "NORAD_CAT_ID": 30388, "ELEMENT_SET_NO": 999, "REV_AT_EPOCH": 97625, "BSTAR": 0.00048378993, "MEAN_MOTION_DOT": 1.265e-05, "MEAN_MOTION_DDOT": 0}, "tle": {"line1": "1 30388U 99025ADB 25360.32327499  .00001265  00000+0  48379-3 0  9999", "line2": "2 30388  98.5984  20.6117 0221515  23.6242 358.6962 14.19802038976253"}}, "geometry": {"type": "Point", "coordinates": [-116.77197953713701, 77.32016200529513]}}, {"type": "Feature", "properties": {"norad_id": 30389, "name": "FENGYUN 1C DEB", "group": "fengyun-1c-debris", "lat": -72.57397439345777, "lon": 112.17836678759183, "alt_km": 753.6926437940429, "timestamp": "2025-12-26T16:33:55.847692+00:00", "meta": {"OBJECT_NAME": "FENGYUN 1C DEB", "OBJECT_ID": "1999-025ADC", "EPOCH": "2025-12-26T03:53:57.916896", "MEAN_MOTION": 14.44257116, "ECCENTRICITY": 0.00146884, "INCLINATION": 98.8367, "RA_OF_ASC_NODE": 81.9196, "ARG_OF_PERICENTER": 185.7033, "MEAN_ANOMALY": 236.8454, "EPHEMERIS_TYPE": 0, "CLASSIFICATION_TYPE": "U", "NORAD_CAT_ID": 30389, "ELEMENT_SET_NO": 999, "REV_AT_EPOCH": 97980, "BSTAR": 0.0022748999, "MEAN_MOTION_DOT": 7.788e-05, "MEAN_MOTION_DDOT": 0}, "tle": {"line1": "1 30389U 99025ADC 25360.16247589  .00007788  00000+0  22749-2 0  9991", "line2": "2 30389  98.8367  81.9196 0014688 185.7033 236.8454 14.44257116979804"}}, "geometry": {"type": "Point", "coordinates": [112.17836678759183, -72.57397439345777]}}, {"type": "Feature", "properties": {"norad_id": 30390, "name": "FENGYUN 1C DEB", "group": "fengyun-1c-debris", "lat": 52.46129420288916, "lon": -84.25918500394015, "alt_km": 739.1030451701263, "timestamp": "2025-12-26T16:33:55.847701+00:00", "meta": {"OBJECT_NAME": "FENGYUN 1C DEB", "OBJECT_ID": "1999-025ADD", "EPOCH": "2025-12-26T04:31:08.299200", "MEAN_MOTION": 14.2984539, "ECCENTRICITY": 0.00672409, "INCLINATION": 98.8226, "RA_OF_ASC_NODE": 83.5712, "ARG_OF_PERICENTER": 126.0973, "MEAN_ANOMALY": 298.204, "EPHEMERIS_TYPE": 0, "CLASSIFICATION_TYPE": "U", "NORAD_CAT_ID": 30390, "ELEMENT_SET_NO": 999, "REV_AT_EPOCH": 97576, "BSTAR": 0.0016887562, "MEAN_MOTION_DOT": 4.408e-05, "MEAN_MOTION_DDOT": 0}, "tle": {"line1": "1 30390U 99025ADD 25360.18829050  .00004408  00000+0  16888-2 0  9997", "line2": "2 30390  98.8226  83.5712 0067240 126.0973 298.2040 14.29845390975769"}}, "geometry": {"type": "Point", "coordinates": [-84.25918500394015, 52.46129420288916]}}, {"type": "Feature", "properties": {"norad_id": 30391, "name": "FENGYUN 1C DEB", "group": "fengyun-1c-debris", "lat": 77.88814643997439, "lon": 0.43500299651442087, "alt_km": 870.5506403109503, "timestamp": "2025-12-26T16:33:55.847710+00:00", "meta": {"OBJECT_NAME": "FENGYUN 1C DEB", "OBJECT_ID": "1999-025ADE", "EPOCH": "2025-12-26T02:54:32.906016", "MEAN_MOTION": 14.16295531, "ECCENTRICITY": 0.00721035, "INCLINATION": 98.7795, "RA_OF_ASC_NODE": 45.9398, "ARG_OF_PERICENTER": 223.7169, "MEAN_ANOMALY": 198.8602, "EPHEMERIS_TYPE": 0, "CLASSIFICATION_TYPE": "U", "NORAD_CAT_ID": 30391, "ELEMENT_SET_NO": 999, "REV_AT_EPOCH": 97068, "BSTAR": 0.0010713507, "MEAN_MOTION_DOT": 2.135e-05, "MEAN_MOTION_DDOT": 0}, "tle": {"line1": "1 30391U 99025ADE 25360.12121419  .00002135  00000+0  10714-2 0  9993", "line2": "2 30391  98.7795  45.9398 0072103 223.7169 198.8602 14.16295531970685"}}, "geometry": {"type": "Point", "coordinates": [0.43500299651442087, 77.88814643997439]}}, {"type": "Feature", "properties": {"norad_id": 30392, "name": "FENGYUN 1C DEB", "group": "fengyun-1c-debris", "lat": -7.819097569899227, "lon": 20.114567867171058, "alt_km": 763.614966939911, "timestamp": "2025-12-26T16:33:55.847719+00:00", "meta": {"OBJECT_NAME": "FENGYUN 1C DEB", "OBJECT_ID": "1999-025ADF", "EPOCH": "2025-12-25T23:50:16.869120", "MEAN_MOTION": 14.07483822, "ECCENTRICITY": 0.0180425, "INCLINATION": 98.7852, "RA_OF_ASC_NODE": 18.2197, "ARG_OF_PERICENTER": 319.4475, "MEAN_ANOMALY": 102.0034, "EPHEMERIS_TYPE": 0, "CLASSIFICATION_TYPE": "U", "NORAD_CAT_ID": 30392, "ELEMENT_SET_NO": 999, "REV_AT_EPOCH": 96857, "BSTAR": 0.00064922, "MEAN_MOTION_DOT": 1.224e-05, "MEAN_MOTION_DDOT": 0}, "tle": {"line1": "1 30392U 99025ADF 25359.99325080  .00001224  00000+0  64922-3 0  9996", "line2": "2 30392  98.7852  18.2197 0180425 319.4475 102.0034 14.07483822968573"}}, "geometry": {"type": "Point", "coordinates": [20.114567867171058, -7.819097569899227]}}, {"type": "Feature", "properties": {"norad_id": 30393, "name": "FENGYUN 1C DEB", "group": "fengyun-1c-debris", "lat": 19.080583459331052, "lon": 55.27460296308184, "alt_km": 944.668535611806, "timestamp": "2025-12-26T16:33:55.847728+00:00", "meta": {"OBJECT_NAME": "FENGYUN 1C DEB", "OBJECT_ID": "1999-025ADG", "EPOCH": "2025-12-26T03:00:20.190816", "MEAN_MOTION": 13.98993082, "ECCENTRICITY": 0.00701914, "INCLINATION": 99.1637, "RA_OF_ASC_NODE": 57.9105, "ARG_OF_PERICENTER": 223.0645, "MEAN_ANOMALY": 192.0932, "EPHEMERIS_TYPE": 0, "CLASSIFICATION_TYPE": "U", "NORAD_CAT_ID": 30393, "ELEMENT_SET_NO": 999, "REV_AT_EPOCH": 96517, "BSTAR": 6.7566945e-05, "MEAN_MOTION_DOT": 5.4e-07, "MEAN_MOTION_DDOT": 0}, "tle": {"line1": "1 30393U 99025ADG 25360.12523369  .00000054  00000+0  67567-4 0  9993", "line2": "2 30393  99.1637  57.9105 0070191 223.0645 192.0932 13.98993082965178"}}, "geometry": {"type": "Point", "coordinates": [55.27460296308184, 19.080583459331052]}}, {"type": "Feature", "properties": {"norad_id": 30394, "name": "FENGYUN 1C DEB", "group": "fengyun-1c-debris", "lat": -9.526833228169057, "lon": -152.31635386211522, "alt_km": 950.0616401389161, "timestamp": "2025-12-26T16:33:55.847737+00:00", "meta": {"OBJECT_NAME": "FENGYUN 1C DEB", "OBJECT_ID": "1999-025ADH", "EPOCH": "2025-12-25T14:27:05.779008", "MEAN_MOTION": 13.95795337, "ECCENTRICITY": 0.0089762, "INCLINATION": 99.4335, "RA_OF_ASC_NODE": 28.1689, "ARG_OF_PERICENTER": 66.9183, "MEAN_ANOMALY": 57.2763, "EPHEMERIS_TYPE": 0, "CLASSIFICATION_TYPE": "U", "NORAD_CAT_ID": 30394, "ELEMENT_SET_NO": 999, "REV_AT_EPOCH": 96283, "BSTAR": 0.0003852, "MEAN_MOTION_DOT": 4.98e-06, "MEAN_MOTION_DDOT": 0}, "tle": {"line1": "1 30394U 99025ADH 25359.60215022  .00000498  00000+0  38520-3 0  9997", "line2": "2 30394  99.4335  28.1689 0089762  66.9183  57.2763 13.95795337962833"}}, "geometry": {"type": "Point", "coordinates": [-152.31635386211522, -9.526833228169057]}}, {"type": "Feature", "properties": {"norad_id": 30395, "name": "FENGYUN 1C DEB", "group": "fengyun-1c-debris", "lat": 24.881836900194514, "lon": 11.666677550967881, "alt_km": 811.4095736462996, "timestamp": "2025-12-26T16:33:55.847747+00:00", "meta": {"OBJECT_NAME": "FENGYUN 1C DEB", "OBJECT_ID": "1999-025ADJ", "EPOCH": "2025-12-25T13:31:31.060416", "MEAN_MOTION": 13.96709429, "ECCENTRICITY": 0.0159797, "INCLINATION": 98.93, "RA_OF_ASC_NODE": 14.7545, "ARG_OF_PERICENTER": 350.8774, "MEAN_ANOMALY": 131.3282, "EPHEMERIS_TYPE": 0, "CLASSIFICATION_TYPE": "U", "NORAD_CAT_ID": 30395, "ELEMENT_SET_NO": 999, "REV_AT_EPOCH": 96202, "BSTAR": 0.00056283, "MEAN_MOTION_DOT": 8.26e-06, "MEAN_MOTION_DDOT": 0}, "tle": {"line1": "1 30395U 99025ADJ 25359.56355394  .00000826  00000+0  56283-3 0  9991", "line2": "2 30395  98.9300  14.7545 0159797 350.8774 131.3282 13.96709429962028"}}, "geometry": {"type": "Point", "coordinates": [11.666677550967881, 24.881836900194514]}}]}